[{"OBJECT_NAME":"STARLINK-37198","OBJECT_ID":"2026-063G","EPOCH":"2026-04-10T06:00:00.999648","MEAN_MOTION":15.80823506,"ECCENTRICITY":0.00011017,"INCLINATION":97.2825,"RA_OF_ASC_NODE":241.5451,"ARG_OF_PERICENTER":81.6848,"MEAN_ANOMALY":39.2104,"EPHEMERIS_TYPE":0,"CLASSIFICATION_TYPE":"U","NORAD_CAT_ID":68386,"ELEMENT_SET_NO":999,"REV_AT_EPOCH":353,"BSTAR":-0.0002430831,"MEAN_MOTION_DOT":-0.00046471,"MEAN_MOTION_DDOT":0},{"OBJECT_NAME":"STARLINK-37223","OBJECT_ID":"2026-063H","EPOCH":"2026-04-10T06:00:00.999648","MEAN_MOTION":15.80746093,"ECCENTRICITY":0.00014278,"INCLINATION":97.2823,"RA_OF_ASC_NODE":241.5467,"ARG_OF_PERICENTER":100.2511,"MEAN_ANOMALY":24.9285,"EPHEMERIS_TYPE":0,"CLASSIFICATION_TYPE":"U","NORAD_CAT_ID":68387,"ELEMENT_SET_NO":999,"REV_AT_EPOCH":353,"BSTAR":0.00041150584,"MEAN_MOTION_DOT":0.00079146,"MEAN_MOTION_DDOT":0},{"OBJECT_NAME":"STARLINK-37203","OBJECT_ID":"2026-063J","EPOCH":"2026-04-10T06:00:00.999648","MEAN_MOTION":15.80823033,"ECCENTRICITY":0.00014232,"INCLINATION":97.2825,"RA_OF_ASC_NODE":241.5494,"ARG_OF_PERICENTER":94.4073,"MEAN_ANOMALY":35.0362,"EPHEMERIS_TYPE":0,"CLASSIFICATION_TYPE":"U","NORAD_CAT_ID":68388,"ELEMENT_SET_NO":999,"REV_AT_EPOCH":353,"BSTAR":-7.5551419e-5,"MEAN_MOTION_DOT":-0.00014594,"MEAN_MOTION_DDOT":0},{"OBJECT_NAME":"STARLINK-37197","OBJECT_ID":"2026-063K","EPOCH":"2026-04-10T06:00:00.999648","MEAN_MOTION":15.75188114,"ECCENTRICITY":0.00010903,"INCLINATION":97.2836,"RA_OF_ASC_NODE":241.541,"ARG_OF_PERICENTER":90.9078,"MEAN_ANOMALY":21.0739,"EPHEMERIS_TYPE":0,"CLASSIFICATION_TYPE":"U","NORAD_CAT_ID":68389,"ELEMENT_SET_NO":999,"REV_AT_EPOCH":353,"BSTAR":-0.0004583273,"MEAN_MOTION_DOT":-0.00067944,"MEAN_MOTION_DDOT":0},{"OBJECT_NAME":"STARLINK-37193","OBJECT_ID":"2026-063L","EPOCH":"2026-04-10T06:00:00.999648","MEAN_MOTION":15.94813712,"ECCENTRICITY":0.00014992,"INCLINATION":97.2738,"RA_OF_ASC_NODE":241.7464,"ARG_OF_PERICENTER":63.473,"MEAN_ANOMALY":163.5317,"EPHEMERIS_TYPE":0,"CLASSIFICATION_TYPE":"U","NORAD_CAT_ID":68390,"ELEMENT_SET_NO":999,"REV_AT_EPOCH":186,"BSTAR":-0.0048587917,"MEAN_MOTION_DOT":-0.01836205,"MEAN_MOTION_DDOT":0.00095644064},{"OBJECT_NAME":"STARLINK-37216","OBJECT_ID":"2026-063M","EPOCH":"2026-04-10T06:00:00.999648","MEAN_MOTION":15.80800669,"ECCENTRICITY":0.00013587,"INCLINATION":97.2828,"RA_OF_ASC_NODE":241.5562,"ARG_OF_PERICENTER":74.8131,"MEAN_ANOMALY":67.4517,"EPHEMERIS_TYPE":0,"CLASSIFICATION_TYPE":"U","NORAD_CAT_ID":68391,"ELEMENT_SET_NO":999,"REV_AT_EPOCH":353,"BSTAR":0.00020178642,"MEAN_MOTION_DOT":0.00038654,"MEAN_MOTION_DDOT":0},{"OBJECT_NAME":"STARLINK-37215","OBJECT_ID":"2026-063N","EPOCH":"2026-04-10T06:00:00.999648","MEAN_MOTION":15.80791457,"ECCENTRICITY":0.00012566,"INCLINATION":97.2829,"RA_OF_ASC_NODE":241.5579,"ARG_OF_PERICENTER":93.8588,"MEAN_ANOMALY":52.6808,"EPHEMERIS_TYPE":0,"CLASSIFICATION_TYPE":"U","NORAD_CAT_ID":68392,"ELEMENT_SET_NO":999,"REV_AT_EPOCH":353,"BSTAR":0.00036058025,"MEAN_MOTION_DOT":0.00069399,"MEAN_MOTION_DDOT":0},{"OBJECT_NAME":"STARLINK-37184","OBJECT_ID":"2026-063P","EPOCH":"2026-04-10T06:00:00.999648","MEAN_MOTION":15.8081365,"ECCENTRICITY":0.0001246,"INCLINATION":97.2826,"RA_OF_ASC_NODE":241.5597,"ARG_OF_PERICENTER":96.3703,"MEAN_ANOMALY":54.4273,"EPHEMERIS_TYPE":0,"CLASSIFICATION_TYPE":"U","NORAD_CAT_ID":68393,"ELEMENT_SET_NO":999,"REV_AT_EPOCH":353,"BSTAR":0.00024641865,"MEAN_MOTION_DOT":0.0004731,"MEAN_MOTION_DDOT":0},{"OBJECT_NAME":"STARLINK-37157","OBJECT_ID":"2026-063Q","EPOCH":"2026-04-10T06:00:00.999648","MEAN_MOTION":15.78166795,"ECCENTRICITY":0.00019705,"INCLINATION":97.2835,"RA_OF_ASC_NODE":241.5584,"ARG_OF_PERICENTER":70.7198,"MEAN_ANOMALY":81.4002,"EPHEMERIS_TYPE":0,"CLASSIFICATION_TYPE":"U","NORAD_CAT_ID":68394,"ELEMENT_SET_NO":999,"REV_AT_EPOCH":353,"BSTAR":-0.01260526,"MEAN_MOTION_DOT":-0.01874231,"MEAN_MOTION_DDOT":0},{"OBJECT_NAME":"STARLINK-37172","OBJECT_ID":"2026-063R","EPOCH":"2026-04-10T06:00:00.999648","MEAN_MOTION":15.80784707,"ECCENTRICITY":0.00012503,"INCLINATION":97.283,"RA_OF_ASC_NODE":241.5638,"ARG_OF_PERICENTER":86.9052,"MEAN_ANOMALY":76.7355,"EPHEMERIS_TYPE":0,"CLASSIFICATION_TYPE":"U","NORAD_CAT_ID":68395,"ELEMENT_SET_NO":999,"REV_AT_EPOCH":353,"BSTAR":0.0004082545,"MEAN_MOTION_DOT":0.00078653,"MEAN_MOTION_DDOT":0},{"OBJECT_NAME":"STARLINK-37190","OBJECT_ID":"2026-063S","EPOCH":"2026-04-10T06:00:00.999648","MEAN_MOTION":15.80785831,"ECCENTRICITY":0.00013832,"INCLINATION":97.2831,"RA_OF_ASC_NODE":241.5616,"ARG_OF_PERICENTER":113.6453,"MEAN_ANOMALY":45.7155,"EPHEMERIS_TYPE":0,"CLASSIFICATION_TYPE":"U","NORAD_CAT_ID":68396,"ELEMENT_SET_NO":999,"REV_AT_EPOCH":353,"BSTAR":0.00043483369,"MEAN_MOTION_DOT":0.00083838,"MEAN_MOTION_DDOT":0},{"OBJECT_NAME":"STARLINK-37194","OBJECT_ID":"2026-063T","EPOCH":"2026-04-10T06:00:00.999648","MEAN_MOTION":15.80815735,"ECCENTRICITY":0.00015492,"INCLINATION":97.2827,"RA_OF_ASC_NODE":241.5652,"ARG_OF_PERICENTER":97.2584,"MEAN_ANOMALY":70.6502,"EPHEMERIS_TYPE":0,"CLASSIFICATION_TYPE":"U","NORAD_CAT_ID":68397,"ELEMENT_SET_NO":999,"REV_AT_EPOCH":353,"BSTAR":-5.479945e-5,"MEAN_MOTION_DOT":-0.00010626,"MEAN_MOTION_DDOT":0},{"OBJECT_NAME":"STARLINK-37220","OBJECT_ID":"2026-063U","EPOCH":"2026-04-10T06:00:00.999648","MEAN_MOTION":15.80778368,"ECCENTRICITY":0.00013427,"INCLINATION":97.2829,"RA_OF_ASC_NODE":241.5699,"ARG_OF_PERICENTER":96.0409,"MEAN_ANOMALY":80.4195,"EPHEMERIS_TYPE":0,"CLASSIFICATION_TYPE":"U","NORAD_CAT_ID":68398,"ELEMENT_SET_NO":999,"REV_AT_EPOCH":353,"BSTAR":0.00050515842,"MEAN_MOTION_DOT":0.0009754,"MEAN_MOTION_DDOT":0},{"OBJECT_NAME":"STARLINK-37187","OBJECT_ID":"2026-063V","EPOCH":"2026-04-10T06:00:00.999648","MEAN_MOTION":15.80786253,"ECCENTRICITY":0.00011942,"INCLINATION":97.2828,"RA_OF_ASC_NODE":241.5678,"ARG_OF_PERICENTER":88.5853,"MEAN_ANOMALY":83.6013,"EPHEMERIS_TYPE":0,"CLASSIFICATION_TYPE":"U","NORAD_CAT_ID":68399,"ELEMENT_SET_NO":999,"REV_AT_EPOCH":353,"BSTAR":0.00041959411,"MEAN_MOTION_DOT":0.00080868,"MEAN_MOTION_DDOT":0},{"OBJECT_NAME":"STARLINK-36235","OBJECT_ID":"2026-063W","EPOCH":"2026-04-10T06:00:00.999648","MEAN_MOTION":15.80802097,"ECCENTRICITY":0.00012599,"INCLINATION":97.2829,"RA_OF_ASC_NODE":241.5709,"ARG_OF_PERICENTER":85.2725,"MEAN_ANOMALY":95.4657,"EPHEMERIS_TYPE":0,"CLASSIFICATION_TYPE":"U","NORAD_CAT_ID":68400,"ELEMENT_SET_NO":999,"REV_AT_EPOCH":353,"BSTAR":0.00022925992,"MEAN_MOTION_DOT":0.00043966,"MEAN_MOTION_DDOT":0},{"OBJECT_NAME":"STARLINK-37175","OBJECT_ID":"2026-063X","EPOCH":"2026-04-10T06:00:00.999648","MEAN_MOTION":15.80780463,"ECCENTRICITY":0.00013152,"INCLINATION":97.2829,"RA_OF_ASC_NODE":241.5731,"ARG_OF_PERICENTER":93.8898,"MEAN_ANOMALY":91.118,"EPHEMERIS_TYPE":0,"CLASSIFICATION_TYPE":"U","NORAD_CAT_ID":68401,"ELEMENT_SET_NO":999,"REV_AT_EPOCH":353,"BSTAR":0.00045675928,"MEAN_MOTION_DOT":0.00088094,"MEAN_MOTION_DDOT":0}]
