STARLINK-37198          
1 68386U 26063G   26100.25001157 -.00046471  00000+0 -24308-3 0  9991
2 68386  97.2825 241.5451 0001101  81.6848  39.2104 15.80823506  3534
STARLINK-37223          
1 68387U 26063H   26100.25001157  .00079146  00000+0  41151-3 0  9990
2 68387  97.2823 241.5467 0001427 100.2511  24.9285 15.80746093  3532
STARLINK-37203          
1 68388U 26063J   26100.25001157 -.00014594  00000+0 -75551-4 0  9991
2 68388  97.2825 241.5494 0001423  94.4073  35.0362 15.80823033  3537
STARLINK-37197          
1 68389U 26063K   26100.25001157 -.00067944  00000+0 -45833-3 0  9998
2 68389  97.2836 241.5410 0001090  90.9078  21.0739 15.75188114  3535
STARLINK-37193          
1 68390U 26063L   26100.25001157 -.01836205  95644-3 -48588-2 0  9996
2 68390  97.2738 241.7464 0001499  63.4730 163.5317 15.94813712  1860
STARLINK-37216          
1 68391U 26063M   26100.25001157  .00038654  00000+0  20179-3 0  9991
2 68391  97.2828 241.5562 0001358  74.8131  67.4517 15.80800669  3535
STARLINK-37215          
1 68392U 26063N   26100.25001157  .00069399  00000+0  36058-3 0  9995
2 68392  97.2829 241.5579 0001256  93.8588  52.6808 15.80791457  3532
STARLINK-37184          
1 68393U 26063P   26100.25001157  .00047310  00000+0  24642-3 0  9991
2 68393  97.2826 241.5597 0001246  96.3703  54.4273 15.80813650  3532
STARLINK-37157          
1 68394U 26063Q   26100.25001157 -.01874231  00000+0 -12605-1 0  9999
2 68394  97.2835 241.5584 0001970  70.7198  81.4002 15.78166795  3535
STARLINK-37172          
1 68395U 26063R   26100.25001157  .00078653  00000+0  40825-3 0  9998
2 68395  97.2830 241.5638 0001250  86.9052  76.7355 15.80784707  3530
STARLINK-37190          
1 68396U 26063S   26100.25001157  .00083838  00000+0  43483-3 0  9993
2 68396  97.2831 241.5616 0001383 113.6453  45.7155 15.80785831  3531
STARLINK-37194          
1 68397U 26063T   26100.25001157 -.00010626  00000+0 -54799-4 0  9994
2 68397  97.2827 241.5652 0001549  97.2584  70.6502 15.80815735  3533
STARLINK-37220          
1 68398U 26063U   26100.25001157  .00097540  00000+0  50516-3 0  9995
2 68398  97.2829 241.5699 0001342  96.0409  80.4195 15.80778368  3538
STARLINK-37187          
1 68399U 26063V   26100.25001157  .00080868  00000+0  41959-3 0  9992
2 68399  97.2828 241.5678 0001194  88.5853  83.6013 15.80786253  3535
STARLINK-36235          
1 68400U 26063W   26100.25001157  .00043966  00000+0  22926-3 0  9996
2 68400  97.2829 241.5709 0001259  85.2725  95.4657 15.80802097  3538
STARLINK-37175          
1 68401U 26063X   26100.25001157  .00088094  00000+0  45676-3 0  9995
2 68401  97.2829 241.5731 0001315  93.8898  91.1180 15.80780463  3539
